{"type": "FeatureCollection", "features": [ {"type": "Feature", "properties": {"norad_id": 33939, "name": "COSMOS 2251 DEB", "group": "cosmos-2251-debris", "lat": -18.007565968470498, "lon": 45.593363942588674, "alt_km": 565.5776601151565, "timestamp": "2025-12-27T07:26:25.613685+00:00", "meta": {"OBJECT_NAME": "COSMOS 2251 DEB", "OBJECT_ID": "1993-036EU", "EPOCH": "2025-12-26T12:19:36.424128", "MEAN_MOTION": 15.00846184, "ECCENTRICITY": 0.0005256, "INCLINATION": 74.0064, "RA_OF_ASC_NODE": 52.5661, "ARG_OF_PERICENTER": 11.3538, "MEAN_ANOMALY": 348.7767, "EPHEMERIS_TYPE": 0, "CLASSIFICATION_TYPE": "U", "NORAD_CAT_ID": 33939, "ELEMENT_SET_NO": 999, "REV_AT_EPOCH": 88959, "BSTAR": 0.0029211, "MEAN_MOTION_DOT": 0.0003732, "MEAN_MOTION_DDOT": 0}, "tle": {"line1": "1 33939U 93036EU  25360.51361602  .00037320  00000+0  29211-2 0  9999", "line2": "2 33939  74.0064  52.5661 0005256  11.3538 348.7767 15.00846184889592"}}, "geometry": {"type": "Point", "coordinates": [45.593363942588674, -18.007565968470498]}}, {"type": "Feature", "properties": {"norad_id": 33940, "name": "COSMOS 2251 DEB", "group": "cosmos-2251-debris", "lat": 73.16289981013537, "lon": -135.2728237857726, "alt_km": 690.6748696944724, "timestamp": "2025-12-27T07:26:25.613695+00:00", "meta": {"OBJECT_NAME": "COSMOS 2251 DEB", "OBJECT_ID": "1993-036EV", "EPOCH": "2025-12-26T18:32:03.681312", "MEAN_MOTION": 14.58931988, "ECCENTRICITY": 0.0010588, "INCLINATION": 74.0399, "RA_OF_ASC_NODE": 116.7763, "ARG_OF_PERICENTER": 197.6819, "MEAN_ANOMALY": 314.6193, "EPHEMERIS_TYPE": 0, "CLASSIFICATION_TYPE": "U", "NORAD_CAT_ID": 33940, "ELEMENT_SET_NO": 999, "REV_AT_EPOCH": 88798, "BSTAR": 0.0012113808, "MEAN_MOTION_DOT": 5.659e-05, "MEAN_MOTION_DDOT": 0}, "tle": {"line1": "1 33940U 93036EV  25360.77226483  .00005659  00000+0  12114-2 0  9990", "line2": "2 33940  74.0399 116.7763 0010588 197.6819 314.6193 14.58931988887980"}}, "geometry": {"type": "Point", "coordinates": [-135.2728237857726, 73.16289981013537]}}, {"type": "Feature", "properties": {"norad_id": 33942, "name": "COSMOS 2251 DEB", "group": "cosmos-2251-debris", "lat": -71.61592895743892, "lon": -171.46829085590812, "alt_km": 762.3167732332704, "timestamp": "2025-12-27T07:26:25.613705+00:00", "meta": {"OBJECT_NAME": "COSMOS 2251 DEB", "OBJECT_ID": "1993-036EX", "EPOCH": "2025-12-26T17:05:25.114272", "MEAN_MOTION": 14.38006939, "ECCENTRICITY": 0.00208597, "INCLINATION": 74.0358, "RA_OF_ASC_NODE": 249.0968, "ARG_OF_PERICENTER": 329.8877, "MEAN_ANOMALY": 95.4412, "EPHEMERIS_TYPE": 0, "CLASSIFICATION_TYPE": "U", "NORAD_CAT_ID": 33942, "ELEMENT_SET_NO": 999, "REV_AT_EPOCH": 88335, "BSTAR": 0.00019534542, "MEAN_MOTION_DOT": 5.66e-06, "MEAN_MOTION_DDOT": 0}, "tle": {"line1": "1 33942U 93036EX  25360.71209623  .00000566  00000+0  19535-3 0  9990", "line2": "2 33942  74.0358 249.0968 0020859 329.8877  95.4412 14.38006939883351"}}, "geometry": {"type": "Point", "coordinates": [-171.46829085590812, -71.61592895743892]}}, {"type": "Feature", "properties": {"norad_id": 33944, "name": "COSMOS 2251 DEB", "group": "cosmos-2251-debris", "lat": 54.88285036442197, "lon": 78.1093504552257, "alt_km": 779.7140192849001, "timestamp": "2025-12-27T07:26:25.613715+00:00", "meta": {"OBJECT_NAME": "COSMOS 2251 DEB", "OBJECT_ID": "1993-036EZ", "EPOCH": "2025-12-26T22:52:14.856672", "MEAN_MOTION": 14.37376701, "ECCENTRICITY": 0.0112816, "INCLINATION": 74.0407, "RA_OF_ASC_NODE": 282.7768, "ARG_OF_PERICENTER": 18.7842, "MEAN_ANOMALY": 54.6719, "EPHEMERIS_TYPE": 0, "CLASSIFICATION_TYPE": "U", "NORAD_CAT_ID": 33944, "ELEMENT_SET_NO": 999, "REV_AT_EPOCH": 88232, "BSTAR": 0.00042757822, "MEAN_MOTION_DOT": 1.347e-05, "MEAN_MOTION_DDOT": 0}, "tle": {"line1": "1 33944U 93036EZ  25360.95294973  .00001347  00000+0  42758-3 0  9991", "line2": "2 33944  74.0407 282.7768 0112816  18.7842  54.6719 14.37376701882320"}}, "geometry": {"type": "Point", "coordinates": [78.1093504552257, 54.88285036442197]}}, {"type": "Feature", "properties": {"norad_id": 33945, "name": "COSMOS 2251 DEB", "group": "cosmos-2251-debris", "lat": 48.11324143144282, "lon": 80.94908090085082, "alt_km": 781.3705490362763, "timestamp": "2025-12-27T07:26:25.613725+00:00", "meta": {"OBJECT_NAME": "COSMOS 2251 DEB", "OBJECT_ID": "1993-036FA", "EPOCH": "2025-12-26T22:28:24.444192", "MEAN_MOTION": 14.34612225, "ECCENTRICITY": 0.00225204, "INCLINATION": 74.0302, "RA_OF_ASC_NODE": 280.2541, "ARG_OF_PERICENTER": 2.9375, "MEAN_ANOMALY": 357.1905, "EPHEMERIS_TYPE": 0, "CLASSIFICATION_TYPE": "U", "NORAD_CAT_ID": 33945, "ELEMENT_SET_NO": 999, "REV_AT_EPOCH": 88219, "BSTAR": 0.00015482879, "MEAN_MOTION_DOT": 4.13e-06, "MEAN_MOTION_DDOT": 0}, "tle": {"line1": "1 33945U 93036FA  25360.93639403  .00000413  00000+0  15483-3 0  9999", "line2": "2 33945  74.0302 280.2541 0022520   2.9375 357.1905 14.34612225882199"}}, "geometry": {"type": "Point", "coordinates": [80.94908090085082, 48.11324143144282]}}, {"type": "Feature", "properties": {"norad_id": 33948, "name": "COSMOS 2251 DEB", "group": "cosmos-2251-debris", "lat": 30.662449192641613, "lon": -71.82758755584402, "alt_km": 758.3472436010761, "timestamp": "2025-12-27T07:26:25.613735+00:00", "meta": {"OBJECT_NAME": "COSMOS 2251 DEB", "OBJECT_ID": "1993-036FD", "EPOCH": "2025-12-26T21:15:28.818144", "MEAN_MOTION": 14.35646042, "ECCENTRICITY": 0.00233526, "INCLINATION": 74.036, "RA_OF_ASC_NODE": 279.1796, "ARG_OF_PERICENTER": 351.726, "MEAN_ANOMALY": 8.3504, "EPHEMERIS_TYPE": 0, "CLASSIFICATION_TYPE": "U", "NORAD_CAT_ID": 33948, "ELEMENT_SET_NO": 999, "REV_AT_EPOCH": 88226, "BSTAR": 0.00022460754, "MEAN_MOTION_DOT": 6.24e-06, "MEAN_MOTION_DDOT": 0}, "tle": {"line1": "1 33948U 93036FD  25360.88575021  .00000624  00000+0  22461-3 0  9999", "line2": "2 33948  74.0360 279.1796 0023352 351.7260   8.3504 14.35646042882260"}}, "geometry": {"type": "Point", "coordinates": [-71.82758755584402, 30.662449192641613]}}, {"type": "Feature", "properties": {"norad_id": 33971, "name": "COSMOS 2251 DEB", "group": "cosmos-2251-debris", "lat": -43.24547628943368, "lon": -148.82649142352534, "alt_km": 752.238048124841, "timestamp": "2025-12-27T07:26:25.613745+00:00", "meta": {"OBJECT_NAME": "COSMOS 2251 DEB", "OBJECT_ID": "1993-036FE", "EPOCH": "2025-12-26T21:43:27.537312", "MEAN_MOTION": 14.39749079, "ECCENTRICITY": 0.00190555, "INCLINATION": 74.0236, "RA_OF_ASC_NODE": 227.5534, "ARG_OF_PERICENTER": 325.8002, "MEAN_ANOMALY": 51.3984, "EPHEMERIS_TYPE": 0, "CLASSIFICATION_TYPE": "U", "NORAD_CAT_ID": 33971, "ELEMENT_SET_NO": 999, "REV_AT_EPOCH": 88343, "BSTAR": 0.000273755, "MEAN_MOTION_DOT": 8.33e-06, "MEAN_MOTION_DDOT": 0}, "tle": {"line1": "1 33971U 93036FE  25360.90517983  .00000833  00000+0  27376-3 0  9993", "line2": "2 33971  74.0236 227.5534 0019055 325.8002  51.3984 14.39749079883434"}}, "geometry": {"type": "Point", "coordinates": [-148.82649142352534, -43.24547628943368]}}, {"type": "Feature", "properties": {"norad_id": 33972, "name": "COSMOS 2251 DEB", "group": "cosmos-2251-debris", "lat": 66.61399917206276, "lon": -154.58420199359935, "alt_km": 784.9095781312844, "timestamp": "2025-12-27T07:26:25.613770+00:00", "meta": {"OBJECT_NAME": "COSMOS 2251 DEB", "OBJECT_ID": "1993-036FF", "EPOCH": "2025-12-26T21:46:53.946048", "MEAN_MOTION": 14.36338237, "ECCENTRICITY": 0.01240795, "INCLINATION": 73.9944, "RA_OF_ASC_NODE": 164.5705, "ARG_OF_PERICENTER": 329.1123, "MEAN_ANOMALY": 182.105, "EPHEMERIS_TYPE": 0, "CLASSIFICATION_TYPE": "U", "NORAD_CAT_ID": 33972, "ELEMENT_SET_NO": 999, "REV_AT_EPOCH": 87277, "BSTAR": 0.0017750967, "MEAN_MOTION_DOT": 5.646e-05, "MEAN_MOTION_DDOT": 0}, "tle": {"line1": "1 33972U 93036FF  25360.90756882  .00005646  00000+0  17751-2 0  9999", "line2": "2 33972  73.9944 164.5705 0124079 329.1123 182.1050 14.36338237872772"}}, "geometry": {"type": "Point", "coordinates": [-154.58420199359935, 66.61399917206276]}}, {"type": "Feature", "properties": {"norad_id": 33973, "name": "COSMOS 2251 DEB", "group": "cosmos-2251-debris", "lat": -56.00221789831306, "lon": 50.526883463428454, "alt_km": 725.1991701222769, "timestamp": "2025-12-27T07:26:25.613782+00:00", "meta": {"OBJECT_NAME": "COSMOS 2251 DEB", "OBJECT_ID": "1993-036FG", "EPOCH": "2025-12-26T15:48:39.068064", "MEAN_MOTION": 14.45405845, "ECCENTRICITY": 0.004737, "INCLINATION": 74.0087, "RA_OF_ASC_NODE": 76.9048, "ARG_OF_PERICENTER": 252.7865, "MEAN_ANOMALY": 259.9773, "EPHEMERIS_TYPE": 0, "CLASSIFICATION_TYPE": "U", "NORAD_CAT_ID": 33973, "ELEMENT_SET_NO": 999, "REV_AT_EPOCH": 88801, "BSTAR": 0.00015886, "MEAN_MOTION_DOT": 5.38e-06, "MEAN_MOTION_DDOT": 0}, "tle": {"line1": "1 33973U 93036FG  25360.65878551  .00000538  00000+0  15886-3 0  9993", "line2": "2 33973  74.0087  76.9048 0047370 252.7865 259.9773 14.45405845888010"}}, "geometry": {"type": "Point", "coordinates": [50.526883463428454, -56.00221789831306]}}, {"type": "Feature", "properties": {"norad_id": 33975, "name": "COSMOS 2251 DEB", "group": "cosmos-2251-debris", "lat": 46.77526560688796, "lon": 76.85657953159001, "alt_km": 992.5642025906636, "timestamp": "2025-12-27T07:26:25.613793+00:00", "meta": {"OBJECT_NAME": "COSMOS 2251 DEB", "OBJECT_ID": "1993-036FJ", "EPOCH": "2025-12-26T20:54:41.011200", "MEAN_MOTION": 14.00552398, "ECCENTRICITY": 0.01907448, "INCLINATION": 73.8014, "RA_OF_ASC_NODE": 59.6118, "ARG_OF_PERICENTER": 190.3061, "MEAN_ANOMALY": 169.414, "EPHEMERIS_TYPE": 0, "CLASSIFICATION_TYPE": "U", "NORAD_CAT_ID": 33975, "ELEMENT_SET_NO": 999, "REV_AT_EPOCH": 86027, "BSTAR": 0.00054509436, "MEAN_MOTION_DOT": 9.23e-06, "MEAN_MOTION_DDOT": 0}, "tle": {"line1": "1 33975U 93036FJ  25360.87130800  .00000923  00000+0  54509-3 0  9990", "line2": "2 33975  73.8014  59.6118 0190744 190.3061 169.4140 14.00552398860272"}}, "geometry": {"type": "Point", "coordinates": [76.85657953159001, 46.77526560688796]}}]}